{"type": "FeatureCollection", "features": [ {"type": "Feature", "properties": {"norad_id": 40534, "name": "GPS BIIF-9  (PRN 26)", "group": "gps-ops", "lat": -53.142169586641764, "lon": 125.00783041803926, "alt_km": 20356.210849420288, "timestamp": "2025-12-17T10:52:54.612047+00:00", "meta": {"OBJECT_NAME": "GPS BIIF-9  (PRN 26)", "OBJECT_ID": "2015-013A", "EPOCH": "2025-12-15T13:56:13.399296", "MEAN_MOTION": 2.00562492, "ECCENTRICITY": 0.01071717, "INCLINATION": 53.1973, "RA_OF_ASC_NODE": 211.7725, "ARG_OF_PERICENTER": 38.5497, "MEAN_ANOMALY": 322.2983, "EPHEMERIS_TYPE": 0, "CLASSIFICATION_TYPE": "U", "NORAD_CAT_ID": 40534, "ELEMENT_SET_NO": 999, "REV_AT_EPOCH": 7814, "BSTAR": 0, "MEAN_MOTION_DOT": 7.3e-07, "MEAN_MOTION_DDOT": 0}, "tle": {"line1": "1 40534U 15013A   25349.58071064  .00000073  00000+0  00000+0 0  9998", "line2": "2 40534  53.1973 211.7725 0107171  38.5497 322.2983  2.00562492 78143"}}, "geometry": {"type": "Point", "coordinates": [125.00783041803926, -53.142169586641764]}}, {"type": "Feature", "properties": {"norad_id": 40730, "name": "GPS BIIF-10 (PRN 08)", "group": "gps-ops", "lat": 18.191644741153308, "lon": 80.82802621907983, "alt_km": 20369.575441566412, "timestamp": "2025-12-17T10:52:54.612058+00:00", "meta": {"OBJECT_NAME": "GPS BIIF-10 (PRN 08)", "OBJECT_ID": "2015-033A", "EPOCH": "2025-12-15T17:48:26.893152", "MEAN_MOTION": 2.00565528, "ECCENTRICITY": 0.01111613, "INCLINATION": 54.128, "RA_OF_ASC_NODE": 274.6493, "ARG_OF_PERICENTER": 26.8812, "MEAN_ANOMALY": 333.7061, "EPHEMERIS_TYPE": 0, "CLASSIFICATION_TYPE": "U", "NORAD_CAT_ID": 40730, "ELEMENT_SET_NO": 999, "REV_AT_EPOCH": 7631, "BSTAR": 0, "MEAN_MOTION_DOT": -6.1e-07, "MEAN_MOTION_DDOT": 0}, "tle": {"line1": "1 40730U 15033A   25349.74197793 -.00000061  00000+0  00000+0 0  9992", "line2": "2 40730  54.1280 274.6493 0111161  26.8812 333.7061  2.00565528 76312"}}, "geometry": {"type": "Point", "coordinates": [80.82802621907983, 18.191644741153308]}}, {"type": "Feature", "properties": {"norad_id": 41019, "name": "GPS BIIF-11 (PRN 10)", "group": "gps-ops", "lat": 51.49867925780969, "lon": 162.61817044591083, "alt_km": 20317.748990944885, "timestamp": "2025-12-17T10:52:54.612070+00:00", "meta": {"OBJECT_NAME": "GPS BIIF-11 (PRN 10)", "OBJECT_ID": "2015-062A", "EPOCH": "2025-12-16T07:11:55.851072", "MEAN_MOTION": 2.00567222, "ECCENTRICITY": 0.01109218, "INCLINATION": 56.8347, "RA_OF_ASC_NODE": 37.8646, "ARG_OF_PERICENTER": 230.0329, "MEAN_ANOMALY": 129.0434, "EPHEMERIS_TYPE": 0, "CLASSIFICATION_TYPE": "U", "NORAD_CAT_ID": 41019, "ELEMENT_SET_NO": 999, "REV_AT_EPOCH": 7416, "BSTAR": 0, "MEAN_MOTION_DOT": -8.3e-07, "MEAN_MOTION_DDOT": 0}, "tle": {"line1": "1 41019U 15062A   25350.29995198 -.00000083  00000+0  00000+0 0  9996", "line2": "2 41019  56.8347  37.8646 0110921 230.0329 129.0434  2.00567222 74164"}}, "geometry": {"type": "Point", "coordinates": [162.61817044591083, 51.49867925780969]}}, {"type": "Feature", "properties": {"norad_id": 41328, "name": "GPS BIIF-12 (PRN 32)", "group": "gps-ops", "lat": 40.771942605122845, "lon": 133.1283998150357, "alt_km": 20417.719422253303, "timestamp": "2025-12-17T10:52:54.612081+00:00", "meta": {"OBJECT_NAME": "GPS BIIF-12 (PRN 32)", "OBJECT_ID": "2016-007A", "EPOCH": "2025-12-14T21:16:57.823104", "MEAN_MOTION": 2.00560623, "ECCENTRICITY": 0.00922757, "INCLINATION": 55.4074, "RA_OF_ASC_NODE": 96.7717, "ARG_OF_PERICENTER": 243.6198, "MEAN_ANOMALY": 115.4149, "EPHEMERIS_TYPE": 0, "CLASSIFICATION_TYPE": "U", "NORAD_CAT_ID": 41328, "ELEMENT_SET_NO": 999, "REV_AT_EPOCH": 7214, "BSTAR": 0, "MEAN_MOTION_DOT": -3.3e-07, "MEAN_MOTION_DDOT": 0}, "tle": {"line1": "1 41328U 16007A   25348.88678036 -.00000033  00000+0  00000+0 0  9995", "line2": "2 41328  55.4074  96.7717 0092275 243.6198 115.4149  2.00560623 72143"}}, "geometry": {"type": "Point", "coordinates": [133.1283998150357, 40.771942605122845]}}, {"type": "Feature", "properties": {"norad_id": 43873, "name": "GPS BIII-1  (PRN 04)", "group": "gps-ops", "lat": -41.08819995071607, "lon": 62.66850039414307, "alt_km": 20225.089813879953, "timestamp": "2025-12-17T10:52:54.612092+00:00", "meta": {"OBJECT_NAME": "GPS BIII-1  (PRN 04)", "OBJECT_ID": "2018-109A", "EPOCH": "2025-12-15T18:29:34.483200", "MEAN_MOTION": 2.00553802, "ECCENTRICITY": 0.00374359, "INCLINATION": 55.5688, "RA_OF_ASC_NODE": 99.4273, "ARG_OF_PERICENTER": 195.145, "MEAN_ANOMALY": 336.5518, "EPHEMERIS_TYPE": 0, "CLASSIFICATION_TYPE": "U", "NORAD_CAT_ID": 43873, "ELEMENT_SET_NO": 999, "REV_AT_EPOCH": 5139, "BSTAR": 0, "MEAN_MOTION_DOT": -3.2e-07, "MEAN_MOTION_DDOT": 0}, "tle": {"line1": "1 43873U 18109A   25349.77053800 -.00000032  00000+0  00000+0 0  9991", "line2": "2 43873  55.5688  99.4273 0037435 195.1450 336.5518  2.00553802 51399"}}, "geometry": {"type": "Point", "coordinates": [62.66850039414307, -41.08819995071607]}}, {"type": "Feature", "properties": {"norad_id": 44506, "name": "GPS BIII-2  (PRN 18)", "group": "gps-ops", "lat": -19.658920528787892, "lon": 172.45942574585027, "alt_km": 20032.422372040757, "timestamp": "2025-12-17T10:52:54.612103+00:00", "meta": {"OBJECT_NAME": "GPS BIII-2  (PRN 18)", "OBJECT_ID": "2019-056A", "EPOCH": "2025-12-16T09:52:28.741728", "MEAN_MOTION": 2.00566563, "ECCENTRICITY": 0.00577066, "INCLINATION": 55.7201, "RA_OF_ASC_NODE": 338.4066, "ARG_OF_PERICENTER": 198.4994, "MEAN_ANOMALY": 333.0667, "EPHEMERIS_TYPE": 0, "CLASSIFICATION_TYPE": "U", "NORAD_CAT_ID": 44506, "ELEMENT_SET_NO": 999, "REV_AT_EPOCH": 4640, "BSTAR": 0, "MEAN_MOTION_DOT": -8.9e-07, "MEAN_MOTION_DDOT": 0}, "tle": {"line1": "1 44506U 19056A   25350.41144377 -.00000089  00000+0  00000+0 0  9992", "line2": "2 44506  55.7201 338.4066 0057706 198.4994 333.0667  2.00566563 46405"}}, "geometry": {"type": "Point", "coordinates": [172.45942574585027, -19.658920528787892]}}, {"type": "Feature", "properties": {"norad_id": 45854, "name": "GPS BIII-3  (PRN 23)", "group": "gps-ops", "lat": 26.770521966534023, "lon": -163.443635838622, "alt_km": 20089.245232706224, "timestamp": "2025-12-17T10:52:54.612115+00:00", "meta": {"OBJECT_NAME": "GPS BIII-3  (PRN 23)", "OBJECT_ID": "2020-041A", "EPOCH": "2025-12-15T05:19:26.228640", "MEAN_MOTION": 2.00562018, "ECCENTRICITY": 0.00605633, "INCLINATION": 56.5487, "RA_OF_ASC_NODE": 36.0887, "ARG_OF_PERICENTER": 203.5004, "MEAN_ANOMALY": 133.1292, "EPHEMERIS_TYPE": 0, "CLASSIFICATION_TYPE": "U", "NORAD_CAT_ID": 45854, "ELEMENT_SET_NO": 999, "REV_AT_EPOCH": 4034, "BSTAR": 0, "MEAN_MOTION_DOT": -9e-07, "MEAN_MOTION_DDOT": 0}, "tle": {"line1": "1 45854U 20041A   25349.22183135 -.00000090  00000+0  00000+0 0  9999", "line2": "2 45854  56.5487  36.0887 0060563 203.5004 133.1292  2.00562018 40345"}}, "geometry": {"type": "Point", "coordinates": [-163.443635838622, 26.770521966534023]}}, {"type": "Feature", "properties": {"norad_id": 46826, "name": "GPS BIII-4  (PRN 14)", "group": "gps-ops", "lat": 45.4709649457827, "lon": -9.424447145206724, "alt_km": 20161.10702780149, "timestamp": "2025-12-17T10:52:54.612127+00:00", "meta": {"OBJECT_NAME": "GPS BIII-4  (PRN 14)", "OBJECT_ID": "2020-078A", "EPOCH": "2025-12-16T01:06:13.902336", "MEAN_MOTION": 2.00566891, "ECCENTRICITY": 0.00647559, "INCLINATION": 54.0145, "RA_OF_ASC_NODE": 218.2068, "ARG_OF_PERICENTER": 203.3837, "MEAN_ANOMALY": 339.3927, "EPHEMERIS_TYPE": 0, "CLASSIFICATION_TYPE": "U", "NORAD_CAT_ID": 46826, "ELEMENT_SET_NO": 999, "REV_AT_EPOCH": 3783, "BSTAR": 0, "MEAN_MOTION_DOT": 6.7e-07, "MEAN_MOTION_DDOT": 0}, "tle": {"line1": "1 46826U 20078A   25350.04599424  .00000067  00000+0  00000+0 0  9996", "line2": "2 46826  54.0145 218.2068 0064755 203.3837 339.3927  2.00566891 37831"}}, "geometry": {"type": "Point", "coordinates": [-9.424447145206724, 45.4709649457827]}}, {"type": "Feature", "properties": {"norad_id": 48859, "name": "GPS BIII-5  (PRN 11)", "group": "gps-ops", "lat": -42.68910890180807, "lon": -60.04924177609719, "alt_km": 20166.213928350335, "timestamp": "2025-12-17T10:52:54.612157+00:00", "meta": {"OBJECT_NAME": "GPS BIII-5  (PRN 11)", "OBJECT_ID": "2021-054A", "EPOCH": "2025-12-08T04:14:32.423424", "MEAN_MOTION": 2.00553627, "ECCENTRICITY": 0.0024678, "INCLINATION": 55.2581, "RA_OF_ASC_NODE": 340.1367, "ARG_OF_PERICENTER": 233.3994, "MEAN_ANOMALY": 212.8593, "EPHEMERIS_TYPE": 0, "CLASSIFICATION_TYPE": "U", "NORAD_CAT_ID": 48859, "ELEMENT_SET_NO": 999, "REV_AT_EPOCH": 3292, "BSTAR": 0, "MEAN_MOTION_DOT": -8.6e-07, "MEAN_MOTION_DDOT": 0}, "tle": {"line1": "1 48859U 21054A   25342.17676416 -.00000086  00000+0  00000+0 0  9993", "line2": "2 48859  55.2581 340.1367 0024678 233.3994 212.8593  2.00553627 32922"}}, "geometry": {"type": "Point", "coordinates": [-60.04924177609719, -42.68910890180807]}}, {"type": "Feature", "properties": {"norad_id": 55268, "name": "GPS BIII-6  (PRN 28)", "group": "gps-ops", "lat": -10.983804593180622, "lon": 147.86186065890854, "alt_km": 20174.921023622497, "timestamp": "2025-12-17T10:52:54.612171+00:00", "meta": {"OBJECT_NAME": "GPS BIII-6  (PRN 28)", "OBJECT_ID": "2023-009A", "EPOCH": "2025-12-13T12:37:03.021024", "MEAN_MOTION": 2.00555696, "ECCENTRICITY": 0.00037118, "INCLINATION": 55.1051, "RA_OF_ASC_NODE": 155.8142, "ARG_OF_PERICENTER": 357.4368, "MEAN_ANOMALY": 33.2544, "EPHEMERIS_TYPE": 0, "CLASSIFICATION_TYPE": "U", "NORAD_CAT_ID": 55268, "ELEMENT_SET_NO": 999, "REV_AT_EPOCH": 2152, "BSTAR": 0, "MEAN_MOTION_DOT": 1e-06, "MEAN_MOTION_DDOT": 0}, "tle": {"line1": "1 55268U 23009A   25347.52572941  .00000100  00000+0  00000+0 0  9995", "line2": "2 55268  55.1051 155.8142 0003711 357.4368  33.2544  2.00555696 21528"}}, "geometry": {"type": "Point", "coordinates": [147.86186065890854, -10.983804593180622]}}]}